0 BREEZE-M DEB
1 34236U 06006BB  13281.99116722  .00005890  00000-0  29706-2 0  1576
2 34236 051.6153 187.7571 5072915 113.5478 357.3738 05.40062119105612
0 BREEZE-M DEB
1 34236U 06006BB  13286.24758366  .00006003  00000-0  30906-2 0  1587
2 34236 051.6150 184.4787 5072169 115.9953 353.0808 05.40114002105842
0 BREEZE-M DEB
1 34236U 06006BB  13289.02680756  .00007107  00000-0  36436-2 0  1594
2 34236 051.6143 182.3387 5071781 117.5897 357.1629 05.40166435105990
0 BREEZE-M DEB
1 34236U 06006BB  13293.10485294  .00007082  00000-0  36388-2 0  1608
2 34236 051.6142 179.2087 5070846 119.9196 007.5752 05.40217207106213
0 BREEZE-M DEB
1 34236U 06006BB  13295.87173868  .00007613  00000-0  39519-2 0  1615
2 34236 051.6186 177.0791 5070224 121.4968 348.6988 05.40259392106361
